MOLNIYA 3-39            
1 20813U 90084A   08268.77069325  .00001184  00000-0 -48502-3 0   536
2 20813  62.2143 106.9016 7438306 266.0798  14.7569  2.00486288131977
MOLNIYA 1-80            
1 21118U 91012A   08268.97119264  .00000770  00000-0  82789-1 0  5174
2 21118  62.7464 308.3422 7314813 249.3331  22.7747  2.00705893129025
MOLNIYA 3-40            
1 21196U 91022A   08268.93630921 -.00000014  00000-0  53405-1 0  8162
2 21196  62.3553 290.4134 7319742 251.3473  22.0455  2.00586685128320
MOLNIYA 1-81            
1 21426U 91043A   08269.07784235 -.00000082  00000-0 -11848-2 0  9696
2 21426  62.2389 280.2428 7372544 262.5441  16.4781  2.00622860126584
MOLNIYA 3-41            
1 21706U 91065A   08267.62697429  .00000770  00000-0  51746-3 0  2673
2 21706  62.1197 105.2307 7360710 272.5423  13.3518  2.00625017124697
MOLNIYA 3-42            
1 22178U 92067A   08268.94987891  .00000256  00000-0 -26987-2 0  6404
2 22178  62.0098 231.3703 7288352 261.5581  17.6657  2.00623284116859
MOLNIYA 3-43            
1 22255U 92085A   08269.13377504  .00462615 -60854-5  86578-4 0  1943
2 22255  63.1471   2.5359 6928068 256.7736  23.4717  2.84564232116344
MOLNIYA 1-86            
1 22671U 93035A   08268.67713113 -.00000978  00000-0 -38505-2 0   418
2 22671  62.0612 182.5697 7262898 266.8608  15.9387  2.03237759112626
MOLNIYA 3-45            
1 22729U 93049A   08268.88697708  .00000962  00000-0  00000+0 0  7011
2 22729  63.1880 325.3364 7375160 250.9398  21.7194  2.00586533110920
MOLNIYA 1-87            
1 22949U 93079A   08268.61259813  .00000935  00000-0  10000-3 0  2302
2 22949  63.9557  93.5419 7075712 249.7861  25.8998  2.00220013108190
MOLNIYA 3-46            
1 23211U 94051A   08268.96209713  .00000867  00000-0  17729-3 0  4444
2 23211  62.1484 148.7068 7507481 257.2830  17.3767  2.01053939103309
MOLNIYA 1-88            
1 23420U 94081A   08268.87090129 -.00000412  00000-0  14024-3 0  8174
2 23420  62.3186 278.7686 7458602 258.3917  17.3235  2.02189746101035
MOLNIYA 3-47            
1 23642U 95042A   08268.51290810 -.00000041  00000-0  10000-3 0  2620
2 23642  63.7362  77.9274 7212553 253.9272  22.0230  2.00586554 96219
MOLNIYA 1-89            
1 24273U 96045A   08269.47784515  .00002701 -99820-6  19204-3 0  7552
2 24273  63.4547  12.1694 7525833 253.6451 151.7051  2.00816085 88759
MOLNIYA 1-90            
1 24960U 97054A   08268.69872359  .00000208  00000-0  10000-3 0  2165
2 24960  63.9279 121.4242 7091895 255.9011  58.7575  2.00593700 80660
MOLNIYA 3-49            
1 25379U 98040A   08267.55160523 -.00000237  00000-0  10000-3 0  7475
2 25379  64.0254  93.9615 7290437 255.9459  20.1706  2.00655972 74972
MOLNIYA 1-91            
1 25485U 98054A   08269.30863844  .00000264  00000-0  10000-3 0  3306
2 25485  63.8619 206.7930 6800783 263.9945 325.5765  2.00626115 73192
MOLNIYA 3-50            
1 25847U 99036A   08268.14440658 -.00000138  00000-0  10000-3 0  4889
2 25847  63.9546 304.3872 7130465 267.9208  16.6310  2.00657766 67513
MOLNIYA 3-51            
1 26867U 01030A   08268.95528916  .00000148  00000-0  00000-0 0  6262
2 26867  64.0858 233.7495 7087311 270.4507  16.1978  2.00595777 52648
MOLNIYA 1-92            
1 27707U 03011A   08268.98515420 -.00000143  00000-0  65181-1 0   729
2 27707  64.8246 236.5229 7071545 269.6774  50.0603  2.00582791 40185
MOLNIYA 3-53            
1 27834U 03029A   08268.75458650  .00000048  00000-0  00000-0 0  8836
2 27834  64.8464 236.3427 7072302 270.3080 229.7688  2.00612594 38592
MOLNIYA 1-93            
1 28163U 04005A   08269.22639346 -.00000246  00000-0  00000+0 0  6662
2 28163  64.8150 324.1026 7305757 280.0975  38.0475  2.00607702 33714
